0 IRIDIUM 33 DEB
1 38020U 97051YG  13281.45044161  .00004529  00000-0  25324-2 0  3919
2 38020 086.3326 164.3847 0216955 316.1651 167.7648 13.99430860213544
0 IRIDIUM 33 DEB
1 38020U 97051YG  13284.01259384  .00006479  00000-0  36274-2 0  3922
2 38020 086.3334 163.3545 0216365 308.3179 115.8626 13.99462874213900
0 IRIDIUM 33 DEB
1 38020U 97051YG  13285.94163373  .00004937  00000-0  27639-2 0  3930
2 38020 086.3335 162.5793 0215973 302.3429 114.5746 13.99478512214178
0 IRIDIUM 33 DEB
1 38020U 97051YG  13287.38467771  .00004977  00000-0  27866-2 0  3946
2 38020 086.3336 161.9992 0215785 297.8880 184.8476 13.99489664214375
0 IRIDIUM 33 DEB
1 38020U 97051YG  13290.38806891  .00006552  00000-0  36711-2 0  3951
2 38020 086.3326 160.7913 0215418 288.5795 196.6769 13.99523091214794
0 IRIDIUM 33 DEB
1 38020U 97051YG  13291.38927435  .00005798  00000-0  32478-2 0  3968
2 38020 086.3324 160.3885 0215311 285.4763 201.0742 13.99533435214930
0 IRIDIUM 33 DEB
1 38020U 97051YG  13292.39002407  .00005385  00000-0  30177-2 0  3970
2 38020 086.3320 159.9844 0214861 282.4615 203.1188 13.99542738215076
0 IRIDIUM 33 DEB
1 38020U 97051YG  13293.39069796  .00005755  00000-0  32233-2 0  3982
2 38020 086.3314 159.5847 0215190 279.2307 205.0443 13.99552237215212
0 IRIDIUM 33 DEB
1 38020U 97051YG  13294.39155330  .00006414  00000-0  35930-2 0  3994
2 38020 086.3308 159.1821 0215079 276.1060 207.8061 13.99560917215356
0 IRIDIUM 33 DEB
1 38020U 97051YG  13295.39232789  .00006640  00000-0  37205-2 0  4000
2 38020 086.3298 158.7788 0214855 272.9467 210.2297 13.99570702215494
